ALICE                   
1 39467U 13072F   26068.66905005  .00012311  00000+0  62398-3 0  9993
2 39467 120.4625 282.3278 0159202 246.5562 111.8695 15.07155655100262
STARLINK-32763          
1 62750U 25014R   26067.60053711  .00037707  00000+0  13710-2 0  9993
2 62750  42.9992 160.2923 0001399 268.2367  91.8325 15.27621488 63096
